[{"OBJECT_NAME":"KKS-1 (KISEKI)","OBJECT_ID":"2009-002H","EPOCH":"2026-03-09T22:29:35.909952","MEAN_MOTION":14.82831361,"ECCENTRICITY":0.00064814,"INCLINATION":98.118,"RA_OF_ASC_NODE":349.8365,"ARG_OF_PERICENTER":249.6334,"MEAN_ANOMALY":110.4183,"EPHEMERIS_TYPE":0,"CLASSIFICATION_TYPE":"U","NORAD_CAT_ID":33499,"ELEMENT_SET_NO":999,"REV_AT_EPOCH":92148,"BSTAR":0.00028879278,"MEAN_MOTION_DOT":2.283e-5,"MEAN_MOTION_DDOT":0},{"OBJECT_NAME":"CZ-2C R\/B","OBJECT_ID":"2014-059B","EPOCH":"2026-03-09T12:38:28.136256","MEAN_MOTION":14.76305134,"ECCENTRICITY":0.004224,"INCLINATION":98.3735,"RA_OF_ASC_NODE":286.516,"ARG_OF_PERICENTER":141.1577,"MEAN_ANOMALY":219.268,"EPHEMERIS_TYPE":0,"CLASSIFICATION_TYPE":"U","NORAD_CAT_ID":40262,"ELEMENT_SET_NO":999,"REV_AT_EPOCH":61491,"BSTAR":0.00016581039,"MEAN_MOTION_DOT":1.109e-5,"MEAN_MOTION_DDOT":0}]
